[{"OBJECT_NAME":"STARLINK-5506","OBJECT_ID":"2023-021Z","EPOCH":"2026-03-09T17:15:17.335296","MEAN_MOTION":14.98328506,"ECCENTRICITY":0.00031126,"INCLINATION":70.0012,"RA_OF_ASC_NODE":184.4684,"ARG_OF_PERICENTER":261.3518,"MEAN_ANOMALY":98.7288,"EPHEMERIS_TYPE":0,"CLASSIFICATION_TYPE":"U","NORAD_CAT_ID":55651,"ELEMENT_SET_NO":999,"REV_AT_EPOCH":16879,"BSTAR":-3.9269418e-5,"MEAN_MOTION_DOT":-5.62e-6,"MEAN_MOTION_DDOT":0},{"OBJECT_NAME":"COSMOS 886 DEB","OBJECT_ID":"1976-126BC","EPOCH":"2026-03-09T23:00:40.110048","MEAN_MOTION":13.88993613,"ECCENTRICITY":0.05615405,"INCLINATION":65.7639,"RA_OF_ASC_NODE":244.6412,"ARG_OF_PERICENTER":232.9023,"MEAN_ANOMALY":121.9468,"EPHEMERIS_TYPE":0,"CLASSIFICATION_TYPE":"U","NORAD_CAT_ID":9962,"ELEMENT_SET_NO":999,"REV_AT_EPOCH":38225,"BSTAR":0.00180306,"MEAN_MOTION_DOT":7.881e-5,"MEAN_MOTION_DDOT":0}]
